ONEWEB-0545             
1 54647U 22166F   25245.84672525  .00000020  00000+0  17486-4 0  9991
2 54647  87.9226 301.3285 0002328  85.0818 275.0582 13.21829418133543
ONEWEB-0580             
1 54648U 22166G   25245.89564364  .00000081  00000+0  16564-3 0  9990
2 54648  87.9229 301.3170 0002301  93.8990 266.2407 13.21828181133598
ONEWEB-0582             
1 54649U 22166H   25245.71111546  .00000033  00000+0  48437-4 0  9994
2 54649  87.9220 301.3488 0002485  92.0286 268.1132 13.21828063133544
ONEWEB-0583             
1 54650U 22166J   25245.87357581  .00000005  00000+0 -19204-4 0  9994
2 54650  87.9228 301.3402 0002017  92.2892 267.8473 13.21827649133572
ONEWEB-0584             
1 54651U 22166K   25245.89404626  .00000105  00000+0  22196-3 0  9993
2 54651  87.9228 301.3209 0002336  95.5158 264.6243 13.21828126133563
ONEWEB-0585             
1 54652U 22166L   25245.91930815  .00000010  00000+0 -82622-5 0  9999
2 54652  87.9226 301.3016 0001822  98.5021 261.6320 13.21826794133572
ONEWEB-0586             
1 54653U 22166M   25245.85621444  .00000062  00000+0  11744-3 0  9999
2 54653  87.9228 301.3386 0002083  92.6059 267.5314 13.21829197133568
ONEWEB-0587             
1 54654U 22166N   25245.71429472  .00000044  00000+0  75575-4 0  9995
2 54654  87.9229 301.3147 0001632 103.9332 256.1984 13.21824020133707
ONEWEB-0589             
1 54655U 22166P   25245.85305582 -.00000008  00000+0 -51862-4 0  9991
2 54655  87.9227 301.3311 0002806  92.8733 267.2722 13.21828236133586
ONEWEB-0590             
1 54656U 22166Q   25245.87659541  .00000027  00000+0  32653-4 0  9997
2 54656  87.9224 301.3031 0002140 108.5428 251.5939 13.21824787133572
ONEWEB-0591             
1 54657U 22166R   25245.66223180  .00000033  00000+0  47847-4 0  9999
2 54657  87.9228 301.3694 0002084  95.4604 264.6768 13.21828677133576
ONEWEB-0592             
1 54658U 22166S   25245.89248052  .00000052  00000+0  94946-4 0  9993
2 54658  87.9233 301.2775 0002084  97.2846 262.8525 13.21827526133483
ONEWEB-0593             
1 54659U 22166T   25245.91612505 -.00000048  00000+0 -14879-3 0  9998
2 54659  87.9225 301.3088 0002143  94.8061 265.3318 13.21828561133591
ONEWEB-0594             
1 54660U 22166U   25245.70797417  .00000031  00000+0  44554-4 0  9997
2 54660  87.9230 301.3664 0001894  94.1983 265.9367 13.21828159133589
ONEWEB-0595             
1 54661U 22166V   25245.91296153 -.00000040  00000+0 -12923-3 0  9998
2 54661  87.9228 301.3012 0001771 100.4451 259.6883 13.21827984133587
ONEWEB-0596             
1 54662U 22166W   25245.88616250  .00000101  00000+0  21268-3 0  9997
2 54662  87.9229 301.3217 0001968  98.5052 261.6305 13.21828170133588
ONEWEB-0597             
1 54663U 22166X   25245.86725797  .00000085  00000+0  17360-3 0  9992
2 54663  87.9230 301.3291 0002117  94.3784 265.7592 13.21827907133586
