[{"OBJECT_NAME":"ONEWEB-0545","OBJECT_ID":"2022-166F","EPOCH":"2025-09-02T20:19:17.061600","MEAN_MOTION":13.21829418,"ECCENTRICITY":0.00023288,"INCLINATION":87.9226,"RA_OF_ASC_NODE":301.3285,"ARG_OF_PERICENTER":85.0818,"MEAN_ANOMALY":275.0582,"EPHEMERIS_TYPE":0,"CLASSIFICATION_TYPE":"U","NORAD_CAT_ID":54647,"ELEMENT_SET_NO":999,"REV_AT_EPOCH":13354,"BSTAR":1.748604e-5,"MEAN_MOTION_DOT":2.0e-7,"MEAN_MOTION_DDOT":0},{"OBJECT_NAME":"ONEWEB-0580","OBJECT_ID":"2022-166G","EPOCH":"2025-09-02T21:29:43.610496","MEAN_MOTION":13.21828181,"ECCENTRICITY":0.0002301,"INCLINATION":87.9229,"RA_OF_ASC_NODE":301.317,"ARG_OF_PERICENTER":93.899,"MEAN_ANOMALY":266.2407,"EPHEMERIS_TYPE":0,"CLASSIFICATION_TYPE":"U","NORAD_CAT_ID":54648,"ELEMENT_SET_NO":999,"REV_AT_EPOCH":13359,"BSTAR":0.00016563546,"MEAN_MOTION_DOT":8.1e-7,"MEAN_MOTION_DDOT":0},{"OBJECT_NAME":"ONEWEB-0582","OBJECT_ID":"2022-166H","EPOCH":"2025-09-02T17:04:00.375744","MEAN_MOTION":13.21828063,"ECCENTRICITY":0.00024856,"INCLINATION":87.922,"RA_OF_ASC_NODE":301.3488,"ARG_OF_PERICENTER":92.0286,"MEAN_ANOMALY":268.1132,"EPHEMERIS_TYPE":0,"CLASSIFICATION_TYPE":"U","NORAD_CAT_ID":54649,"ELEMENT_SET_NO":999,"REV_AT_EPOCH":13354,"BSTAR":4.8437186e-5,"MEAN_MOTION_DOT":3.3e-7,"MEAN_MOTION_DDOT":0},{"OBJECT_NAME":"ONEWEB-0583","OBJECT_ID":"2022-166J","EPOCH":"2025-09-02T20:57:56.949984","MEAN_MOTION":13.21827649,"ECCENTRICITY":0.00020173,"INCLINATION":87.9228,"RA_OF_ASC_NODE":301.3402,"ARG_OF_PERICENTER":92.2892,"MEAN_ANOMALY":267.8473,"EPHEMERIS_TYPE":0,"CLASSIFICATION_TYPE":"U","NORAD_CAT_ID":54650,"ELEMENT_SET_NO":999,"REV_AT_EPOCH":13357,"BSTAR":-1.9204226e-5,"MEAN_MOTION_DOT":5.0e-8,"MEAN_MOTION_DDOT":0},{"OBJECT_NAME":"ONEWEB-0584","OBJECT_ID":"2022-166K","EPOCH":"2025-09-02T21:27:25.596864","MEAN_MOTION":13.21828126,"ECCENTRICITY":0.00023366,"INCLINATION":87.9228,"RA_OF_ASC_NODE":301.3209,"ARG_OF_PERICENTER":95.5158,"MEAN_ANOMALY":264.6243,"EPHEMERIS_TYPE":0,"CLASSIFICATION_TYPE":"U","NORAD_CAT_ID":54651,"ELEMENT_SET_NO":999,"REV_AT_EPOCH":13356,"BSTAR":0.00022196259,"MEAN_MOTION_DOT":1.05e-6,"MEAN_MOTION_DDOT":0},{"OBJECT_NAME":"ONEWEB-0585","OBJECT_ID":"2022-166L","EPOCH":"2025-09-02T22:03:48.224160","MEAN_MOTION":13.21826794,"ECCENTRICITY":0.00018227,"INCLINATION":87.9226,"RA_OF_ASC_NODE":301.3016,"ARG_OF_PERICENTER":98.5021,"MEAN_ANOMALY":261.632,"EPHEMERIS_TYPE":0,"CLASSIFICATION_TYPE":"U","NORAD_CAT_ID":54652,"ELEMENT_SET_NO":999,"REV_AT_EPOCH":13357,"BSTAR":-8.262173e-6,"MEAN_MOTION_DOT":1.0e-7,"MEAN_MOTION_DDOT":0},{"OBJECT_NAME":"ONEWEB-0586","OBJECT_ID":"2022-166M","EPOCH":"2025-09-02T20:32:56.927616","MEAN_MOTION":13.21829197,"ECCENTRICITY":0.00020834,"INCLINATION":87.9228,"RA_OF_ASC_NODE":301.3386,"ARG_OF_PERICENTER":92.6059,"MEAN_ANOMALY":267.5314,"EPHEMERIS_TYPE":0,"CLASSIFICATION_TYPE":"U","NORAD_CAT_ID":54653,"ELEMENT_SET_NO":999,"REV_AT_EPOCH":13356,"BSTAR":0.00011744012,"MEAN_MOTION_DOT":6.2e-7,"MEAN_MOTION_DDOT":0},{"OBJECT_NAME":"ONEWEB-0587","OBJECT_ID":"2022-166N","EPOCH":"2025-09-02T17:08:35.063808","MEAN_MOTION":13.2182402,"ECCENTRICITY":0.00016328,"INCLINATION":87.9229,"RA_OF_ASC_NODE":301.3147,"ARG_OF_PERICENTER":103.9332,"MEAN_ANOMALY":256.1984,"EPHEMERIS_TYPE":0,"CLASSIFICATION_TYPE":"U","NORAD_CAT_ID":54654,"ELEMENT_SET_NO":999,"REV_AT_EPOCH":13370,"BSTAR":7.5574604e-5,"MEAN_MOTION_DOT":4.4e-7,"MEAN_MOTION_DDOT":0},{"OBJECT_NAME":"ONEWEB-0589","OBJECT_ID":"2022-166P","EPOCH":"2025-09-02T20:28:24.022848","MEAN_MOTION":13.21828236,"ECCENTRICITY":0.00028069,"INCLINATION":87.9227,"RA_OF_ASC_NODE":301.3311,"ARG_OF_PERICENTER":92.8733,"MEAN_ANOMALY":267.2722,"EPHEMERIS_TYPE":0,"CLASSIFICATION_TYPE":"U","NORAD_CAT_ID":54655,"ELEMENT_SET_NO":999,"REV_AT_EPOCH":13358,"BSTAR":-5.1862081e-5,"MEAN_MOTION_DOT":-8.0e-8,"MEAN_MOTION_DDOT":0},{"OBJECT_NAME":"ONEWEB-0590","OBJECT_ID":"2022-166Q","EPOCH":"2025-09-02T21:02:17.843424","MEAN_MOTION":13.21824787,"ECCENTRICITY":0.000214,"INCLINATION":87.9224,"RA_OF_ASC_NODE":301.3031,"ARG_OF_PERICENTER":108.5428,"MEAN_ANOMALY":251.5939,"EPHEMERIS_TYPE":0,"CLASSIFICATION_TYPE":"U","NORAD_CAT_ID":54656,"ELEMENT_SET_NO":999,"REV_AT_EPOCH":13357,"BSTAR":3.2653092e-5,"MEAN_MOTION_DOT":2.7e-7,"MEAN_MOTION_DDOT":0},{"OBJECT_NAME":"ONEWEB-0591","OBJECT_ID":"2022-166R","EPOCH":"2025-09-02T15:53:36.827520","MEAN_MOTION":13.21828677,"ECCENTRICITY":0.0002084,"INCLINATION":87.9228,"RA_OF_ASC_NODE":301.3694,"ARG_OF_PERICENTER":95.4604,"MEAN_ANOMALY":264.6768,"EPHEMERIS_TYPE":0,"CLASSIFICATION_TYPE":"U","NORAD_CAT_ID":54657,"ELEMENT_SET_NO":999,"REV_AT_EPOCH":13357,"BSTAR":4.7847322e-5,"MEAN_MOTION_DOT":3.3e-7,"MEAN_MOTION_DDOT":0},{"OBJECT_NAME":"ONEWEB-0592","OBJECT_ID":"2022-166S","EPOCH":"2025-09-02T21:25:10.316928","MEAN_MOTION":13.21827526,"ECCENTRICITY":0.00020848,"INCLINATION":87.9233,"RA_OF_ASC_NODE":301.2775,"ARG_OF_PERICENTER":97.2846,"MEAN_ANOMALY":262.8525,"EPHEMERIS_TYPE":0,"CLASSIFICATION_TYPE":"U","NORAD_CAT_ID":54658,"ELEMENT_SET_NO":999,"REV_AT_EPOCH":13348,"BSTAR":9.494608e-5,"MEAN_MOTION_DOT":5.2e-7,"MEAN_MOTION_DDOT":0},{"OBJECT_NAME":"ONEWEB-0593","OBJECT_ID":"2022-166T","EPOCH":"2025-09-02T21:59:13.204320","MEAN_MOTION":13.21828561,"ECCENTRICITY":0.00021438,"INCLINATION":87.9225,"RA_OF_ASC_NODE":301.3088,"ARG_OF_PERICENTER":94.8061,"MEAN_ANOMALY":265.3318,"EPHEMERIS_TYPE":0,"CLASSIFICATION_TYPE":"U","NORAD_CAT_ID":54659,"ELEMENT_SET_NO":999,"REV_AT_EPOCH":13359,"BSTAR":-0.00014879311,"MEAN_MOTION_DOT":-4.8e-7,"MEAN_MOTION_DDOT":0},{"OBJECT_NAME":"ONEWEB-0594","OBJECT_ID":"2022-166U","EPOCH":"2025-09-02T16:59:28.968288","MEAN_MOTION":13.21828159,"ECCENTRICITY":0.00018945,"INCLINATION":87.923,"RA_OF_ASC_NODE":301.3664,"ARG_OF_PERICENTER":94.1983,"MEAN_ANOMALY":265.9367,"EPHEMERIS_TYPE":0,"CLASSIFICATION_TYPE":"U","NORAD_CAT_ID":54660,"ELEMENT_SET_NO":999,"REV_AT_EPOCH":13358,"BSTAR":4.4554392e-5,"MEAN_MOTION_DOT":3.1e-7,"MEAN_MOTION_DDOT":0},{"OBJECT_NAME":"ONEWEB-0595","OBJECT_ID":"2022-166V","EPOCH":"2025-09-02T21:54:39.876192","MEAN_MOTION":13.21827984,"ECCENTRICITY":0.00017713,"INCLINATION":87.9228,"RA_OF_ASC_NODE":301.3012,"ARG_OF_PERICENTER":100.4451,"MEAN_ANOMALY":259.6883,"EPHEMERIS_TYPE":0,"CLASSIFICATION_TYPE":"U","NORAD_CAT_ID":54661,"ELEMENT_SET_NO":999,"REV_AT_EPOCH":13358,"BSTAR":-0.00012922627,"MEAN_MOTION_DOT":-4.0e-7,"MEAN_MOTION_DDOT":0},{"OBJECT_NAME":"ONEWEB-0596","OBJECT_ID":"2022-166W","EPOCH":"2025-09-02T21:16:04.440000","MEAN_MOTION":13.2182817,"ECCENTRICITY":0.00019689,"INCLINATION":87.9229,"RA_OF_ASC_NODE":301.3217,"ARG_OF_PERICENTER":98.5052,"MEAN_ANOMALY":261.6305,"EPHEMERIS_TYPE":0,"CLASSIFICATION_TYPE":"U","NORAD_CAT_ID":54662,"ELEMENT_SET_NO":999,"REV_AT_EPOCH":13358,"BSTAR":0.00021268331,"MEAN_MOTION_DOT":1.01e-6,"MEAN_MOTION_DDOT":0},{"OBJECT_NAME":"ONEWEB-0597","OBJECT_ID":"2022-166X","EPOCH":"2025-09-02T20:48:51.088608","MEAN_MOTION":13.21827907,"ECCENTRICITY":0.00021178,"INCLINATION":87.923,"RA_OF_ASC_NODE":301.3291,"ARG_OF_PERICENTER":94.3784,"MEAN_ANOMALY":265.7592,"EPHEMERIS_TYPE":0,"CLASSIFICATION_TYPE":"U","NORAD_CAT_ID":54663,"ELEMENT_SET_NO":999,"REV_AT_EPOCH":13358,"BSTAR":0.00017360296,"MEAN_MOTION_DOT":8.5e-7,"MEAN_MOTION_DDOT":0}]
